start=new Date('2023-06-26T00:00:00.000Z').valueOf();
sats=[{"SEMIMAJOR_AXIS":"6917.876","TIME_SYSTEM":"UTC","OBJECT_ID":"2022-045B","FILE":"3942504","TLE_LINE1":"1 52332U 22045B   23176.15893612  .00000254  00000-0  34007-4 0  9991","NORAD_CAT_ID":"52332","GP_ID":"234546426","RA_OF_ASC_NODE":"326.8195","ELEMENT_SET_NO":"999","MEAN_MOTION_DDOT":"0.0000000000000","MEAN_ANOMALY":"264.1364","PERIAPSIS":"539.038","DECAY_DATE":null,"ARG_OF_PERICENTER":"95.9744","LAUNCH_DATE":"2022-04-29","INCLINATION":"53.2176","BSTAR":"0.00003400700000","OBJECT_NAME":"STARLINK-3831","REV_AT_EPOCH":"6640","RCS_SIZE":"LARGE","CLASSIFICATION_TYPE":"U","CENTER_NAME":"EARTH","REF_FRAME":"TEME","MEAN_MOTION_DOT":"0.00000254","PERIOD":"95.437","COUNTRY_CODE":"US","ECCENTRICITY":"0.00010160","SITE":"AFETR","MEAN_MOTION":"15.08841368","EPHEMERIS_TYPE":"0","EPOCH":"2023-06-25T03:48:52.080768","MEAN_ELEMENT_THEORY":"SGP4","TLE_LINE2":"2 52332  53.2176 326.8195 0001016  95.9744 264.1364 15.08841368 66407","OBJECT_TYPE":"PAYLOAD","APOAPSIS":"540.444"},{"EPOCH":"2023-06-25T16:25:16.644288","MEAN_ELEMENT_THEORY":"SGP4","APOAPSIS":"540.375","OBJECT_TYPE":"PAYLOAD","TLE_LINE2":"2 52333  53.2170 324.4509 0000916  88.1673 271.9424 15.08841270 66470","MEAN_MOTION_DOT":"0.00001776","REF_FRAME":"TEME","PERIOD":"95.437","CENTER_NAME":"EARTH","MEAN_MOTION":"15.08841270","EPHEMERIS_TYPE":"0","COUNTRY_CODE":"US","SITE":"AFETR","ECCENTRICITY":"0.00009160","RCS_SIZE":"LARGE","CLASSIFICATION_TYPE":"U","BSTAR":"0.00012963000000","INCLINATION":"53.2170","OBJECT_NAME":"STARLINK-3847","REV_AT_EPOCH":"6647","MEAN_ANOMALY":"271.9424","LAUNCH_DATE":"2022-04-29","PERIAPSIS":"539.108","DECAY_DATE":null,"ARG_OF_PERICENTER":"88.1673","RA_OF_ASC_NODE":"324.4509","MEAN_MOTION_DDOT":"0.0000000000000","ELEMENT_SET_NO":"999","TLE_LINE1":"1 52333U 22045C   23176.68422042  .00001776  00000-0  12963-3 0  9991","NORAD_CAT_ID":"52333","GP_ID":"234552582","TIME_SYSTEM":"UTC","SEMIMAJOR_AXIS":"6917.877","FILE":"3942812","OBJECT_ID":"2022-045C"},{"OBJECT_NAME":"STARLINK-3880","REV_AT_EPOCH":"6632","INCLINATION":"53.2179","BSTAR":"0.00013265000000","CLASSIFICATION_TYPE":"U","RCS_SIZE":"LARGE","MEAN_MOTION":"15.08843772","EPHEMERIS_TYPE":"0","COUNTRY_CODE":"US","ECCENTRICITY":"0.00011440","SITE":"AFETR","MEAN_MOTION_DOT":"0.00001824","REF_FRAME":"TEME","PERIOD":"95.437","CENTER_NAME":"EARTH","APOAPSIS":"540.525","TLE_LINE2":"2 52334  53.2179 328.9609 0001144  64.4484 295.6626 15.08843772 66321","OBJECT_TYPE":"PAYLOAD","EPOCH":"2023-06-24T16:18:35.614368","MEAN_ELEMENT_THEORY":"SGP4","FILE":"3941911","OBJECT_ID":"2022-045D","TIME_SYSTEM":"UTC","SEMIMAJOR_AXIS":"6917.869","GP_ID":"234532389","NORAD_CAT_ID":"52334","TLE_LINE1":"1 52334U 22045D   23175.67957887  .00001824  00000-0  13265-3 0  9990","MEAN_MOTION_DDOT":"0.0000000000000","ELEMENT_SET_NO":"999","RA_OF_ASC_NODE":"328.9609","LAUNCH_DATE":"2022-04-29","PERIAPSIS":"538.942","DECAY_DATE":null,"ARG_OF_PERICENTER":"64.4484","MEAN_ANOMALY":"295.6626"},{"ARG_OF_PERICENTER":"88.3694","PERIAPSIS":"539.098","DECAY_DATE":null,"LAUNCH_DATE":"2022-04-29","MEAN_ANOMALY":"271.7403","ELEMENT_SET_NO":"999","MEAN_MOTION_DDOT":"0.0000000000000","RA_OF_ASC_NODE":"324.5154","NORAD_CAT_ID":"52335","GP_ID":"234552574","TLE_LINE1":"1 52335U 22045E   23176.66949835  .00003341  00000-0  22785-3 0  9998","OBJECT_ID":"2022-045E","FILE":"3942812","SEMIMAJOR_AXIS":"6917.866","TIME_SYSTEM":"UTC","TLE_LINE2":"2 52335  53.2177 324.5154 0000915  88.3694 271.7403 15.08844801 66489","OBJECT_TYPE":"PAYLOAD","APOAPSIS":"540.364","MEAN_ELEMENT_THEORY":"SGP4","EPOCH":"2023-06-25T16:04:04.657440","ECCENTRICITY":"0.00009150","SITE":"AFETR","COUNTRY_CODE":"US","EPHEMERIS_TYPE":"0","MEAN_MOTION":"15.08844801","CENTER_NAME":"EARTH","PERIOD":"95.437","REF_FRAME":"TEME","MEAN_MOTION_DOT":"0.00003341","CLASSIFICATION_TYPE":"U","RCS_SIZE":"LARGE","REV_AT_EPOCH":"6648","OBJECT_NAME":"STARLINK-3814","BSTAR":"0.00022785000000","INCLINATION":"53.2177"},{"REV_AT_EPOCH":"6649","OBJECT_NAME":"STARLINK-3823","BSTAR":"0.00025787000000","INCLINATION":"53.2184","CLASSIFICATION_TYPE":"U","RCS_SIZE":"LARGE","EPHEMERIS_TYPE":"0","MEAN_MOTION":"15.08849491","SITE":"AFETR","ECCENTRICITY":"0.00010010","COUNTRY_CODE":"US","PERIOD":"95.437","REF_FRAME":"TEME","MEAN_MOTION_DOT":"0.00003820","CENTER_NAME":"EARTH","APOAPSIS":"540.409","OBJECT_TYPE":"PAYLOAD","TLE_LINE2":"2 52336  53.2184 324.1316 0001001  83.5893 276.5213 15.08849491 66492","MEAN_ELEMENT_THEORY":"SGP4","EPOCH":"2023-06-25T17:02:19.788000","FILE":"3942812","OBJECT_ID":"2022-045F","TIME_SYSTEM":"UTC","SEMIMAJOR_AXIS":"6917.851","GP_ID":"234552581","NORAD_CAT_ID":"52336","TLE_LINE1":"1 52336U 22045F   23176.70995125  .00003820  00000-0  25787-3 0  9994","MEAN_MOTION_DDOT":"0.0000000000000","ELEMENT_SET_NO":"999","RA_OF_ASC_NODE":"324.1316","LAUNCH_DATE":"2022-04-29","ARG_OF_PERICENTER":"83.5893","PERIAPSIS":"539.024","DECAY_DATE":null,"MEAN_ANOMALY":"276.5213"},{"RCS_SIZE":"LARGE","CLASSIFICATION_TYPE":"U","BSTAR":"0.00004929600000","INCLINATION":"53.2181","OBJECT_NAME":"STARLINK-3797","REV_AT_EPOCH":"6648","EPOCH":"2023-06-25T16:19:58.246464","MEAN_ELEMENT_THEORY":"SGP4","OBJECT_TYPE":"PAYLOAD","TLE_LINE2":"2 52337  53.2181 324.4664 0001261  97.9404 262.1731 15.08844612 66489","APOAPSIS":"540.604","CENTER_NAME":"EARTH","MEAN_MOTION_DOT":"0.00000497","REF_FRAME":"TEME","PERIOD":"95.437","COUNTRY_CODE":"US","ECCENTRICITY":"0.00012610","SITE":"AFETR","MEAN_MOTION":"15.08844612","EPHEMERIS_TYPE":"0","TLE_LINE1":"1 52337U 22045G   23176.68053526  .00000497  00000-0  49296-4 0  9991","NORAD_CAT_ID":"52337","GP_ID":"234553080","SEMIMAJOR_AXIS":"6917.866","TIME_SYSTEM":"UTC","OBJECT_ID":"2022-045G","FILE":"3942812","MEAN_ANOMALY":"262.1731","PERIAPSIS":"538.859","DECAY_DATE":null,"ARG_OF_PERICENTER":"97.9404","LAUNCH_DATE":"2022-04-29","RA_OF_ASC_NODE":"324.4664","ELEMENT_SET_NO":"999","MEAN_MOTION_DDOT":"0.0000000000000"},{"CLASSIFICATION_TYPE":"U","RCS_SIZE":"LARGE","REV_AT_EPOCH":"6658","OBJECT_NAME":"STARLINK-3815","INCLINATION":"53.2184","BSTAR":"-0.00009556800000","OBJECT_TYPE":"PAYLOAD","TLE_LINE2":"2 52338  53.2184 317.7414 0001116   6.8274 353.2737 15.16680337 66584","APOAPSIS":"516.653","MEAN_ELEMENT_THEORY":"SGP4","EPOCH":"2023-06-25T15:55:02.884512","ECCENTRICITY":"0.00011160","SITE":"AFETR","COUNTRY_CODE":"US","EPHEMERIS_TYPE":"0","MEAN_MOTION":"15.16680337","CENTER_NAME":"EARTH","PERIOD":"94.944","REF_FRAME":"TEME","MEAN_MOTION_DOT":"-0.00002204","NORAD_CAT_ID":"52338","GP_ID":"234548414","TLE_LINE1":"1 52338U 22045H   23176.66322783 -.00002204  00000-0 -95568-4 0  9997","OBJECT_ID":"2022-045H","FILE":"3942587","SEMIMAJOR_AXIS":"6894.019","TIME_SYSTEM":"UTC","ARG_OF_PERICENTER":"6.8274","DECAY_DATE":null,"PERIAPSIS":"515.115","LAUNCH_DATE":"2022-04-29","MEAN_ANOMALY":"353.2737","ELEMENT_SET_NO":"999","MEAN_MOTION_DDOT":"0.0000000000000","RA_OF_ASC_NODE":"317.7414"},{"TLE_LINE2":"2 52339  53.2181 324.0742 0000926  88.5571 271.5527 15.08846460 66493","OBJECT_TYPE":"PAYLOAD","APOAPSIS":"540.366","MEAN_ELEMENT_THEORY":"SGP4","EPOCH":"2023-06-25T16:30:30.518208","ECCENTRICITY":"0.00009260","SITE":"AFETR","COUNTRY_CODE":"US","EPHEMERIS_TYPE":"0","MEAN_MOTION":"15.08846460","CENTER_NAME":"EARTH","PERIOD":"95.437","MEAN_MOTION_DOT":"0.00001254","REF_FRAME":"TEME","CLASSIFICATION_TYPE":"U","RCS_SIZE":"LARGE","REV_AT_EPOCH":"6649","OBJECT_NAME":"STARLINK-3792","INCLINATION":"53.2181","BSTAR":"0.00009683600000","ARG_OF_PERICENTER":"88.5571","PERIAPSIS":"539.085","DECAY_DATE":null,"LAUNCH_DATE":"2022-04-29","MEAN_ANOMALY":"271.5527","ELEMENT_SET_NO":"999","MEAN_MOTION_DDOT":"0.0000000000000","RA_OF_ASC_NODE":"324.0742","NORAD_CAT_ID":"52339","GP_ID":"234552612","TLE_LINE1":"1 52339U 22045J   23176.68785322  .00001254  00000-0  96836-4 0  9993","OBJECT_ID":"2022-045J","FILE":"3942782","SEMIMAJOR_AXIS":"6917.861","TIME_SYSTEM":"UTC"},{"ELEMENT_SET_NO":"999","MEAN_MOTION_DDOT":"0.0000000000000","RA_OF_ASC_NODE":"318.9051","PERIAPSIS":"539.098","DECAY_DATE":null,"ARG_OF_PERICENTER":"68.1420","LAUNCH_DATE":"2022-04-29","MEAN_ANOMALY":"291.9671","OBJECT_ID":"2022-045K","FILE":"3941911","SEMIMAJOR_AXIS":"6917.875","TIME_SYSTEM":"UTC","GP_ID":"234531883","NORAD_CAT_ID":"52340","TLE_LINE1":"1 52340U 22045K   23175.69153874  .00001669  00000-0  12291-3 0  9998","COUNTRY_CODE":"US","SITE":"AFETR","ECCENTRICITY":"0.00009280","MEAN_MOTION":"15.08841891","EPHEMERIS_TYPE":"0","CENTER_NAME":"EARTH","REF_FRAME":"TEME","MEAN_MOTION_DOT":"0.00001669","PERIOD":"95.437","OBJECT_TYPE":"PAYLOAD","TLE_LINE2":"2 52340  53.2169 318.9051 0000928  68.1420 291.9671 15.08841891 66461","APOAPSIS":"540.382","EPOCH":"2023-06-24T16:35:48.947136","MEAN_ELEMENT_THEORY":"SGP4","OBJECT_NAME":"STARLINK-3818","REV_AT_EPOCH":"6646","BSTAR":"0.00012291000000","INCLINATION":"53.2169","CLASSIFICATION_TYPE":"U","RCS_SIZE":"LARGE"},{"APOAPSIS":"540.507","OBJECT_TYPE":"PAYLOAD","TLE_LINE2":"2 52341  53.2200 328.7010 0001080 101.2661 258.8453 15.08835306 66349","EPOCH":"2023-06-24T17:27:28.573056","MEAN_ELEMENT_THEORY":"SGP4","MEAN_MOTION":"15.08835306","EPHEMERIS_TYPE":"0","COUNTRY_CODE":"US","SITE":"AFETR","ECCENTRICITY":"0.00010800","REF_FRAME":"TEME","MEAN_MOTION_DOT":"-0.00000112","PERIOD":"95.438","CENTER_NAME":"EARTH","CLASSIFICATION_TYPE":"U","RCS_SIZE":"LARGE","OBJECT_NAME":"STARLINK-3843","REV_AT_EPOCH":"6634","INCLINATION":"53.2200","BSTAR":"0.00001102100000","LAUNCH_DATE":"2022-04-29","PERIAPSIS":"539.013","DECAY_DATE":null,"ARG_OF_PERICENTER":"101.2661","MEAN_ANOMALY":"258.8453","MEAN_MOTION_DDOT":"0.0000000000000","ELEMENT_SET_NO":"999","RA_OF_ASC_NODE":"328.7010","NORAD_CAT_ID":"52341","GP_ID":"234532394","TLE_LINE1":"1 52341U 22045L   23175.72741404 -.00000112  00000-0  11021-4 0  9999","FILE":"3941912","OBJECT_ID":"2022-045L","TIME_SYSTEM":"UTC","SEMIMAJOR_AXIS":"6917.895"}];
